OBJECT_NAME,OBJECT_ID,EPOCH,MEAN_MOTION,ECCENTRICITY,INCLINATION,RA_OF_ASC_NODE,ARG_OF_PERICENTER,MEAN_ANOMALY,EPHEMERIS_TYPE,CLASSIFICATION_TYPE,NORAD_CAT_ID,ELEMENT_SET_NO,REV_AT_EPOCH,BSTAR,MEAN_MOTION_DOT,MEAN_MOTION_DDOT
GONETS-M 19,2020-068C,2026-06-06T06:45:16.826400,12.42892041,.00144901,82.4968,353.8589,71.4400,288.8252,0,U,46488,999,25789,.36762102E-3,.61E-6,0
DEKART,2020-068H,2026-06-06T06:30:17.517312,15.37096472,.00077227,97.8745,165.7616,334.1690,25.9166,0,U,46493,999,31409,.44990972E-3,.16276E-3,0
NORBI,2020-068J,2026-06-06T07:10:24.657600,15.47990745,.00046527,97.8634,172.3077,301.7023,58.3772,0,U,46494,999,31452,.57228827E-3,.29881E-3,0
SALSAT,2020-068K,2026-06-05T12:02:50.089632,15.29623212,.000921,97.8853,158.8572,354.5258,5.5879,0,U,46495,999,31357,.29741857E-3,.8465E-4,0
ICEYE-X6,2020-068M,2026-06-06T06:48:47.992320,15.04459136,.00085757,98.0966,150.4357,120.6312,239.5760,0,U,46497,999,31159,.22410399E-3,.3069E-4,0
NETSAT-4,2020-068U,2026-06-05T00:04:14.690784,15.43442394,.0005519,97.8608,163.2689,25.5578,334.5940,0,U,46504,999,31389,.44236761E-3,.19726E-3,0
NETSAT-3,2020-068V,2026-06-05T06:13:25.931424,15.42249360,.0005825,97.8658,161.7772,41.3666,318.8020,0,U,46505,999,31384,.39169E-3,.16765E-3,0
NETSAT-1,2020-068W,2026-06-05T18:56:13.646112,15.34361285,.000624,97.8752,156.8129,63.7765,296.4118,0,U,46506,999,31355,.43982966E-3,.14567E-3,0
NETSAT-2,2020-068X,2026-06-05T12:18:07.853760,15.45478514,.00049625,97.8622,163.6717,58.5352,301.6380,0,U,46507,999,31393,.50165882E-3,.23994E-3,0
TIANQI-6,2020-076D,2026-06-06T03:24:10.445184,15.07108473,.0009242,34.9981,116.2493,70.6515,289.5193,0,U,46810,999,30691,.31615415E-3,.4825E-4,0
KSM1-C,2020-081B,2026-06-06T07:16:27.172128,15.26550654,.00012357,36.8938,126.1271,182.2526,177.8218,0,U,46906,999,30750,.3334299E-3,.8835E-4,0
KSM1-D,2020-081C,2026-06-06T06:58:13.849248,15.24559709,.00037468,36.8953,135.0050,191.4750,168.5914,0,U,46907,999,30743,.31009698E-3,.7727E-4,0
KSM1-A,2020-081H,2026-06-06T07:13:05.345184,15.25779732,.00044781,36.8948,128.4549,239.1549,120.8760,0,U,46912,999,30751,.3413964E-3,.8841E-4,0
R2,2020-081J,2026-06-01T01:57:08.509536,15.25182244,.00068263,36.8961,160.5241,158.1099,201.9942,0,U,46913,999,30952,.346666E-3,.882E-4,0
KSM1-B,2020-081K,2026-06-06T05:26:43.448064,15.24351968,.0006073,36.9003,135.9749,203.8469,156.1999,0,U,46914,999,31051,.31073681E-3,.7697E-4,0
GONETS-M 20,2020-091A,2026-06-06T05:16:02.028288,12.42893347,.00206816,82.5043,309.2546,201.8692,158.1507,0,U,47227,999,24971,.30614284E-3,.52E-6,0
GONETS-M 21,2020-091B,2026-06-06T06:34:14.132352,12.42886440,.00142527,82.4968,307.9346,215.2514,144.7624,0,U,47228,999,24971,.62480132E-3,.96E-6,0
GONETS-M 22,2020-091C,2026-06-06T05:55:33.685824,12.42892494,.00216147,82.5026,308.8450,197.1833,162.8517,0,U,47229,999,24966,.57915344E-3,.9E-6,0
CUBEL,2021-006AM,2026-06-05T09:48:34.564896,15.40822496,.00060052,97.2330,207.1068,199.7830,160.3184,0,U,47448,999,29794,.21208789E-3,.8616E-4,0
ARKTIKA-M 1,2021-016A,2026-06-02T00:56:25.095840,2.00628509,.72832396,63.2379,59.8266,269.8643,14.6915,0,U,47719,999,3848,0,-.2E-5,0
STARLINK-2342,2021-021Z,2026-06-06T06:00:02.000160,15.74169908,.00015116,53.1547,202.7342,86.4114,55.2535,0,U,47883,999,593,.74390897E-2,.1208224E-1,0
GRUS-1B,2021-022C,2026-06-06T07:06:05.069664,14.98967186,.00166003,97.5400,40.8505,6.4747,353.6688,0,U,47934,999,28426,.17794333E-3,.2102E-4,0
UNISAT-7,2021-022P,2026-06-06T02:46:27.681024,15.40165214,.00111494,97.3896,61.9262,110.6996,249.5446,0,U,47945,999,28815,.48053574E-3,.19257E-3,0
GLOBAL-9,2021-023G,2026-06-06T03:25:26.727744,15.46164247,.00052777,44.9824,312.5856,262.2365,97.7925,0,U,47971,999,29323,.60814827E-3,.30281E-3,0
AII-BRAVO,2021-034C,2026-06-04T17:00:06.192000,15.03371022,.00049922,97.5602,210.9026,313.0854,46.9954,0,U,48270,999,27774,.4202957E-3,.5654E-4,0
TYVAK-182A,2021-034D,2026-06-06T02:27:20.099808,15.06069655,.00061601,97.5730,216.2125,23.3944,336.7562,0,U,48271,999,27816,.50239512E-3,.7281E-4,0
CSS (TIANHE),2021-035A,2026-06-06T02:20:47.373792,15.60328974,.00093572,41.4693,29.4663,351.5849,8.4832,0,U,48274,999,29143,.34273941E-3,.28689E-3,0
TYVAK-0130,2021-041BF,2026-06-06T01:16:29.692416,15.27409165,.00110695,52.9953,77.7876,130.4252,229.7712,0,U,48606,999,27868,.40997476E-3,.10828E-3,0
