GONETS-M 19             
1 46488U 20068C   26157.28144475  .00000061  00000+0  36762-3 0  9995
2 46488  82.4968 353.8589 0014490  71.4400 288.8252 12.42892041257893
DEKART                  
1 46493U 20068H   26157.27103608  .00016276  00000+0  44991-3 0  9991
2 46493  97.8745 165.7616 0007722 334.1690  25.9166 15.37096472314094
NORBI                   
1 46494U 20068J   26157.29889650  .00029881  00000+0  57229-3 0  9996
2 46494  97.8634 172.3077 0004652 301.7023  58.3772 15.47990745314524
SALSAT                  
1 46495U 20068K   26156.50196863  .00008465  00000+0  29742-3 0  9991
2 46495  97.8853 158.8572 0009210 354.5258   5.5879 15.29623212313576
ICEYE-X6                
1 46497U 20068M   26157.28388880  .00003069  00000+0  22410-3 0  9991
2 46497  98.0966 150.4357 0008575 120.6312 239.5760 15.04459136311594
NETSAT-4                
1 46504U 20068U   26156.00294781  .00019726  00000+0  44237-3 0  9993
2 46504  97.8608 163.2689 0005519  25.5578 334.5940 15.43442394313897
NETSAT-3                
1 46505U 20068V   26156.25932791  .00016765  00000+0  39169-3 0  9999
2 46505  97.8658 161.7772 0005825  41.3666 318.8020 15.42249360313849
NETSAT-1                
1 46506U 20068W   26156.78904683  .00014567  00000+0  43983-3 0  9994
2 46506  97.8752 156.8129 0006240  63.7765 296.4118 15.34361285313555
NETSAT-2                
1 46507U 20068X   26156.51259090  .00023994  00000+0  50166-3 0  9996
2 46507  97.8622 163.6717 0004962  58.5352 301.6380 15.45478514313932
TIANQI-6                
1 46810U 20076D   26157.14178756  .00004825  00000+0  31615-3 0  9991
2 46810  34.9981 116.2493 0009242  70.6515 289.5193 15.07108473306914
KSM1-C                  
1 46906U 20081B   26157.30309227  .00008835  00000+0  33343-3 0  9995
2 46906  36.8938 126.1271 0001235 182.2526 177.8218 15.26550654307509
KSM1-D                  
1 46907U 20081C   26157.29043807  .00007727  00000+0  31010-3 0  9991
2 46907  36.8953 135.0050 0003746 191.4750 168.5914 15.24559709307431
KSM1-A                  
1 46912U 20081H   26157.30075631  .00008841  00000+0  34140-3 0  9994
2 46912  36.8948 128.4549 0004478 239.1549 120.8760 15.25779732307519
R2                      
1 46913U 20081J   26152.08134849  .00008820  00000+0  34667-3 0  9993
2 46913  36.8961 160.5241 0006826 158.1099 201.9942 15.25182244309522
KSM1-B                  
1 46914U 20081K   26157.22689176  .00007697  00000+0  31074-3 0  9993
2 46914  36.9003 135.9749 0006073 203.8469 156.1999 15.24351968310517
GONETS-M 20             
1 47227U 20091A   26157.21946792  .00000052  00000+0  30614-3 0  9998
2 47227  82.5043 309.2546 0020681 201.8692 158.1507 12.42893347249713
GONETS-M 21             
1 47228U 20091B   26157.27377468  .00000096  00000+0  62480-3 0  9997
2 47228  82.4968 307.9346 0014252 215.2514 144.7624 12.42886440249718
GONETS-M 22             
1 47229U 20091C   26157.24691766  .00000090  00000+0  57915-3 0  9996
2 47229  82.5026 308.8450 0021614 197.1833 162.8517 12.42892494249665
CUBEL                   
1 47448U 21006AM  26156.40873339  .00008616  00000+0  21209-3 0  9990
2 47448  97.2330 207.1068 0006005 199.7830 160.3184 15.40822496297940
ARKTIKA-M 1             
1 47719U 21016A   26153.03917935 -.00000200  00000+0  00000+0 0  9993
2 47719  63.2379  59.8266 7283239 269.8643  14.6915  2.00628509 38489
STARLINK-2342           
1 47883U 21021Z   26157.25002315  .01208224  00000+0  74391-2 0  9999
2 47883  53.1547 202.7342 0001511  86.4114  55.2535 15.74169908  5931
GRUS-1B                 
1 47934U 21022C   26157.29589201  .00002102  00000+0  17794-3 0  9996
2 47934  97.5400  40.8505 0016600   6.4747 353.6688 14.98967186284267
UNISAT-7                
1 47945U 21022P   26157.11559816  .00019257  00000+0  48054-3 0  9990
2 47945  97.3896  61.9262 0011149 110.6996 249.5446 15.40165214288154
GLOBAL-9                
1 47971U 21023G   26157.14267046  .00030281  00000+0  60815-3 0  9993
2 47971  44.9824 312.5856 0005277 262.2365  97.7925 15.46164247293236
AII-BRAVO               
1 48270U 21034C   26155.70840500  .00005654  00000+0  42030-3 0  9995
2 48270  97.5602 210.9026 0004992 313.0854  46.9954 15.03371022277748
TYVAK-182A              
1 48271U 21034D   26157.10231597  .00007281  00000+0  50240-3 0  9992
2 48271  97.5730 216.2125 0006160  23.3944 336.7562 15.06069655278161
CSS (TIANHE)            
1 48274U 21035A   26157.09777053  .00028689  00000+0  34274-3 0  9990
2 48274  41.4693  29.4663 0009357 351.5849   8.4832 15.60328974291432
TYVAK-0130              
1 48606U 21041BF  26157.05312144  .00010828  00000+0  40997-3 0  9993
2 48606  52.9953  77.7876 0011069 130.4252 229.7712 15.27409165278686
